start=new Date('2022-07-20T00:00:00.000Z').valueOf();
sats=[{"NORAD_CAT_ID":"46363","COUNTRY_CODE":"US","PERIOD":"95.592","SEMIMAJOR_AXIS":"6925.341","TIME_SYSTEM":"UTC","EPHEMERIS_TYPE":"0","DECAY_DATE":null,"REF_FRAME":"TEME","OBJECT_TYPE":"PAYLOAD","MEAN_MOTION_DOT":"0.00000497","RCS_SIZE":"LARGE","PERIAPSIS":"545.985","EPOCH":"2022-07-19T21:47:03.208992","MEAN_ELEMENT_THEORY":"SGP4","BSTAR":"0.00005227400000","RA_OF_ASC_NODE":"176.7317","APOAPSIS":"548.427","INCLINATION":"53.0540","REV_AT_EPOCH":"10466","ARG_OF_PERICENTER":"56.1821","TLE_LINE1":"1 46363U 20062AQ  22200.90767603  .00000497  00000-0  52274-4 0  9990","OBJECT_ID":"2020-062AQ","SITE":"AFETR","OBJECT_NAME":"STARLINK-1739","MEAN_MOTION":"15.06402548","GP_ID":"208469225","ELEMENT_SET_NO":"999","MEAN_ANOMALY":"303.9335","CENTER_NAME":"EARTH","CLASSIFICATION_TYPE":"U","TLE_LINE2":"2 46363  53.0540 176.7317 0001763  56.1821 303.9335 15.06402548104661","LAUNCH_DATE":"2020-09-03","FILE":"3517796","MEAN_MOTION_DDOT":"0.0000000000000","ECCENTRICITY":"0.00017630"},{"TLE_LINE2":"2 46364  53.0532 157.2337 0001455 106.0562 254.0587 15.06384651104933","MEAN_ANOMALY":"254.0587","CLASSIFICATION_TYPE":"U","CENTER_NAME":"EARTH","OBJECT_NAME":"STARLINK-1763","MEAN_MOTION":"15.06384651","GP_ID":"208467973","ELEMENT_SET_NO":"999","REV_AT_EPOCH":"10493","APOAPSIS":"548.268","INCLINATION":"53.0532","OBJECT_ID":"2020-062AR","TLE_LINE1":"1 46364U 20062AR  22200.91054029 -.00002027  00000-0 -11724-3 0  9990","SITE":"AFETR","ARG_OF_PERICENTER":"106.0562","ECCENTRICITY":"0.00014550","MEAN_MOTION_DDOT":"0.0000000000000","LAUNCH_DATE":"2020-09-03","FILE":"3517796","REF_FRAME":"TEME","DECAY_DATE":null,"OBJECT_TYPE":"PAYLOAD","EPHEMERIS_TYPE":"0","TIME_SYSTEM":"UTC","COUNTRY_CODE":"US","NORAD_CAT_ID":"46364","SEMIMAJOR_AXIS":"6925.396","PERIOD":"95.593","MEAN_ELEMENT_THEORY":"SGP4","EPOCH":"2022-07-19T21:51:10.681056","RA_OF_ASC_NODE":"157.2337","BSTAR":"-0.00011724000000","PERIAPSIS":"546.253","MEAN_MOTION_DOT":"-0.00002027","RCS_SIZE":"LARGE"},{"COUNTRY_CODE":"US","NORAD_CAT_ID":"46365","SEMIMAJOR_AXIS":"6925.313","PERIOD":"95.591","REF_FRAME":"TEME","DECAY_DATE":null,"OBJECT_TYPE":"PAYLOAD","EPHEMERIS_TYPE":"0","TIME_SYSTEM":"UTC","MEAN_MOTION_DOT":"0.00000500","RCS_SIZE":"LARGE","MEAN_ELEMENT_THEORY":"SGP4","EPOCH":"2022-07-19T19:41:01.675392","RA_OF_ASC_NODE":"177.1414","BSTAR":"0.00005243100000","PERIAPSIS":"546.077","REV_AT_EPOCH":"10464","INCLINATION":"53.0539","APOAPSIS":"548.280","TLE_LINE1":"1 46365U 20062AS  22200.82015828  .00000500  00000-0  52431-4 0  9998","OBJECT_ID":"2020-062AS","SITE":"AFETR","ARG_OF_PERICENTER":"63.0960","TLE_LINE2":"2 46365  53.0539 177.1414 0001591  63.0960 297.0191 15.06411463104641","MEAN_ANOMALY":"297.0191","CLASSIFICATION_TYPE":"U","CENTER_NAME":"EARTH","OBJECT_NAME":"STARLINK-1550","GP_ID":"208468223","ELEMENT_SET_NO":"999","MEAN_MOTION":"15.06411463","MEAN_MOTION_DDOT":"0.0000000000000","LAUNCH_DATE":"2020-09-03","FILE":"3517796","ECCENTRICITY":"0.00015910"},{"RCS_SIZE":"LARGE","MEAN_MOTION_DOT":"0.00008123","PERIAPSIS":"546.025","EPOCH":"2022-07-19T22:36:11.746368","MEAN_ELEMENT_THEORY":"SGP4","BSTAR":"0.00056336000000","RA_OF_ASC_NODE":"176.6013","NORAD_CAT_ID":"46366","COUNTRY_CODE":"US","PERIOD":"95.591","SEMIMAJOR_AXIS":"6925.297","TIME_SYSTEM":"UTC","EPHEMERIS_TYPE":"0","DECAY_DATE":null,"REF_FRAME":"TEME","OBJECT_TYPE":"PAYLOAD","LAUNCH_DATE":"2020-09-03","FILE":"3517796","MEAN_MOTION_DDOT":"0.0000000000000","ECCENTRICITY":"0.00016410","INCLINATION":"53.0535","APOAPSIS":"548.298","REV_AT_EPOCH":"10466","ARG_OF_PERICENTER":"68.3880","SITE":"AFETR","TLE_LINE1":"1 46366U 20062AT  22200.94180262  .00008123  00000-0  56336-3 0  9993","OBJECT_ID":"2020-062AT","OBJECT_NAME":"STARLINK-1651","MEAN_MOTION":"15.06416901","GP_ID":"208469474","ELEMENT_SET_NO":"999","CLASSIFICATION_TYPE":"U","CENTER_NAME":"EARTH","MEAN_ANOMALY":"291.7284","TLE_LINE2":"2 46366  53.0535 176.6013 0001641  68.3880 291.7284 15.06416901104660"},{"CENTER_NAME":"EARTH","MEAN_ANOMALY":"295.8154","CLASSIFICATION_TYPE":"U","TLE_LINE2":"2 46368  53.0530 202.4830 0001713  64.3011 295.8154 15.06396707104295","GP_ID":"208469725","ELEMENT_SET_NO":"999","MEAN_MOTION":"15.06396707","OBJECT_NAME":"STARLINK-1658","ARG_OF_PERICENTER":"64.3011","TLE_LINE1":"1 46368U 20062AV  22200.74135764  .00000049  00000-0  22170-4 0  9999","SITE":"AFETR","OBJECT_ID":"2020-062AV","APOAPSIS":"548.410","INCLINATION":"53.0530","REV_AT_EPOCH":"10429","ECCENTRICITY":"0.00017130","MEAN_MOTION_DDOT":"0.0000000000000","FILE":"3517796","LAUNCH_DATE":"2020-09-03","OBJECT_TYPE":"PAYLOAD","DECAY_DATE":null,"REF_FRAME":"TEME","TIME_SYSTEM":"UTC","EPHEMERIS_TYPE":"0","PERIOD":"95.592","SEMIMAJOR_AXIS":"6925.359","NORAD_CAT_ID":"46368","COUNTRY_CODE":"US","RA_OF_ASC_NODE":"202.4830","BSTAR":"0.00002217000000","EPOCH":"2022-07-19T17:47:33.300096","MEAN_ELEMENT_THEORY":"SGP4","PERIAPSIS":"546.037","MEAN_MOTION_DOT":"0.00000049","RCS_SIZE":"LARGE"},{"RCS_SIZE":"LARGE","MEAN_MOTION_DOT":"-0.00000109","EPOCH":"2022-07-19T16:55:50.503296","MEAN_ELEMENT_THEORY":"SGP4","BSTAR":"0.00001158000000","RA_OF_ASC_NODE":"202.6658","PERIAPSIS":"545.965","NORAD_CAT_ID":"46370","COUNTRY_CODE":"US","PERIOD":"95.593","SEMIMAJOR_AXIS":"6925.389","DECAY_DATE":null,"REF_FRAME":"TEME","OBJECT_TYPE":"PAYLOAD","TIME_SYSTEM":"UTC","EPHEMERIS_TYPE":"0","MEAN_MOTION_DDOT":"0.0000000000000","LAUNCH_DATE":"2020-09-03","FILE":"3517796","ECCENTRICITY":"0.00018610","APOAPSIS":"548.543","INCLINATION":"53.0530","REV_AT_EPOCH":"10428","ARG_OF_PERICENTER":"55.6018","SITE":"AFETR","TLE_LINE1":"1 46370U 20062AX  22200.70544564 -.00000109  00000-0  11580-4 0  9991","OBJECT_ID":"2020-062AX","MEAN_ANOMALY":"304.5147","CENTER_NAME":"EARTH","CLASSIFICATION_TYPE":"U","TLE_LINE2":"2 46370  53.0530 202.6658 0001861  55.6018 304.5147 15.06386812104287","OBJECT_NAME":"STARLINK-1670","GP_ID":"208468474","MEAN_MOTION":"15.06386812","ELEMENT_SET_NO":"999"},{"MEAN_MOTION_DDOT":"0.0000000000000","FILE":"3517796","LAUNCH_DATE":"2020-09-03","ECCENTRICITY":"0.00015630","ARG_OF_PERICENTER":"63.1619","TLE_LINE1":"1 46371U 20062AY  22200.69807214 -.00000014  00000-0  17994-4 0  9994","OBJECT_ID":"2020-062AY","SITE":"AFETR","INCLINATION":"53.0547","APOAPSIS":"548.314","REV_AT_EPOCH":"10428","MEAN_ANOMALY":"296.9529","CLASSIFICATION_TYPE":"U","CENTER_NAME":"EARTH","TLE_LINE2":"2 46371  53.0547 202.6910 0001563  63.1619 296.9529 15.06394071104281","MEAN_MOTION":"15.06394071","GP_ID":"208468724","ELEMENT_SET_NO":"999","OBJECT_NAME":"STARLINK-1688","RCS_SIZE":"LARGE","MEAN_MOTION_DOT":"-0.00000014","BSTAR":"0.00001799400000","RA_OF_ASC_NODE":"202.6910","EPOCH":"2022-07-19T16:45:13.432896","MEAN_ELEMENT_THEORY":"SGP4","PERIAPSIS":"546.149","PERIOD":"95.593","SEMIMAJOR_AXIS":"6925.367","NORAD_CAT_ID":"46371","COUNTRY_CODE":"US","OBJECT_TYPE":"PAYLOAD","DECAY_DATE":null,"REF_FRAME":"TEME","TIME_SYSTEM":"UTC","EPHEMERIS_TYPE":"0"},{"SEMIMAJOR_AXIS":"6925.376","PERIOD":"95.593","COUNTRY_CODE":"US","NORAD_CAT_ID":"46372","EPHEMERIS_TYPE":"0","TIME_SYSTEM":"UTC","OBJECT_TYPE":"PAYLOAD","REF_FRAME":"TEME","DECAY_DATE":null,"MEAN_MOTION_DOT":"0.00000624","RCS_SIZE":"LARGE","PERIAPSIS":"546.023","RA_OF_ASC_NODE":"222.3459","BSTAR":"0.00006082100000","MEAN_ELEMENT_THEORY":"SGP4","EPOCH":"2022-07-19T18:34:02.908128","TLE_LINE1":"1 46372U 20062AZ  22200.77364477  .00000624  00000-0  60821-4 0  9996","SITE":"AFETR","OBJECT_ID":"2020-062AZ","ARG_OF_PERICENTER":"55.4280","REV_AT_EPOCH":"10401","INCLINATION":"53.0537","APOAPSIS":"548.460","MEAN_MOTION":"15.06390894","GP_ID":"208468975","ELEMENT_SET_NO":"999","OBJECT_NAME":"STARLINK-1689","TLE_LINE2":"2 46372  53.0537 222.3459 0001759  55.4280 304.6875 15.06390894104014","MEAN_ANOMALY":"304.6875","CENTER_NAME":"EARTH","CLASSIFICATION_TYPE":"U","FILE":"3517796","LAUNCH_DATE":"2020-09-03","MEAN_MOTION_DDOT":"0.0000000000000","ECCENTRICITY":"0.00017590"},{"TIME_SYSTEM":"UTC","EPHEMERIS_TYPE":"0","DECAY_DATE":null,"REF_FRAME":"TEME","OBJECT_TYPE":"PAYLOAD","NORAD_CAT_ID":"46374","COUNTRY_CODE":"US","PERIOD":"95.592","SEMIMAJOR_AXIS":"6925.337","PERIAPSIS":"546.330","EPOCH":"2022-07-19T14:07:18.699168","MEAN_ELEMENT_THEORY":"SGP4","BSTAR":"0.00052246000000","RA_OF_ASC_NODE":"153.1947","RCS_SIZE":"LARGE","MEAN_MOTION_DOT":"0.00007510","OBJECT_NAME":"STARLINK-1711","MEAN_MOTION":"15.06403796","GP_ID":"208442676","ELEMENT_SET_NO":"999","CENTER_NAME":"EARTH","CLASSIFICATION_TYPE":"U","MEAN_ANOMALY":"271.0726","TLE_LINE2":"2 46374  53.0522 153.1947 0001259  89.0407 271.0726 15.06403796104964","APOAPSIS":"548.074","INCLINATION":"53.0522","REV_AT_EPOCH":"10496","ARG_OF_PERICENTER":"89.0407","OBJECT_ID":"2020-062BB","TLE_LINE1":"1 46374U 20062BB  22200.58841087  .00007510  00000-0  52246-3 0  9996","SITE":"AFETR","ECCENTRICITY":"0.00012590","LAUNCH_DATE":"2020-09-03","FILE":"3517724","MEAN_MOTION_DDOT":"0.0000000000000"},{"TLE_LINE2":"2 46375  53.0537 176.6200 0001881  60.3072 299.8105 15.06403513104667","CLASSIFICATION_TYPE":"U","CENTER_NAME":"EARTH","MEAN_ANOMALY":"299.8105","OBJECT_NAME":"STARLINK-1724","MEAN_MOTION":"15.06403513","GP_ID":"208467974","ELEMENT_SET_NO":"999","REV_AT_EPOCH":"10466","APOAPSIS":"548.505","INCLINATION":"53.0537","TLE_LINE1":"1 46375U 20062BC  22200.93442435  .00001059  00000-0  89955-4 0  9990","OBJECT_ID":"2020-062BC","SITE":"AFETR","ARG_OF_PERICENTER":"60.3072","ECCENTRICITY":"0.00018810","MEAN_MOTION_DDOT":"0.0000000000000","LAUNCH_DATE":"2020-09-03","FILE":"3517796","REF_FRAME":"TEME","DECAY_DATE":null,"OBJECT_TYPE":"PAYLOAD","EPHEMERIS_TYPE":"0","TIME_SYSTEM":"UTC","COUNTRY_CODE":"US","NORAD_CAT_ID":"46375","SEMIMAJOR_AXIS":"6925.338","PERIOD":"95.592","MEAN_ELEMENT_THEORY":"SGP4","EPOCH":"2022-07-19T22:25:34.263840","BSTAR":"0.00008995500000","RA_OF_ASC_NODE":"176.6200","PERIAPSIS":"545.900","RCS_SIZE":"LARGE","MEAN_MOTION_DOT":"0.00001059"}];
